{
  "type": "FeatureCollection",
  "features": [
    {
      "type": "Feature",
      "properties": {
        "norad_id": 33924,
        "name": "COSMOS 2251 DEB",
        "group": "cosmos-2251-debris",
        "lat": 10.398146028651036,
        "lon": 73.38140770749241,
        "alt_km": 1219.6599585988006,
        "timestamp": "2025-12-21T07:34:34.907774+00:00",
        "meta_object_name": "COSMOS 2251 DEB",
        "meta_object_id": "1993-036ED",
        "meta_epoch": "2025-12-20T23:35:18.203712",
        "meta_mean_motion": 13.50235063,
        "meta_eccentricity": 0.04038813,
        "meta_inclination": 73.9134,
        "meta_ra_of_asc_node": 256.9514,
        "meta_arg_of_pericenter": 290.9507,
        "meta_mean_anomaly": 64.8826,
        "meta_ephemeris_type": 0,
        "meta_classification_type": "U",
        "meta_norad_cat_id": 33924,
        "meta_element_set_no": 999,
        "meta_rev_at_epoch": 82850,
        "meta_bstar": 0.00037566881,
        "meta_mean_motion_dot": 3.74e-06,
        "meta_mean_motion_ddot": 0,
        "tle_line1": "1 33924U 93036ED  25354.98284958  .00000374  00000+0  37567-3 0  9998",
        "tle_line2": "2 33924  73.9134 256.9514 0403881 290.9507  64.8826 13.50235063828503"
      },
      "geometry": {
        "type": "Point",
        "coordinates": [
          73.38140770749241,
          10.398146028651036
        ]
      }
    },
    {
      "type": "Feature",
      "properties": {
        "norad_id": 33928,
        "name": "COSMOS 2251 DEB",
        "group": "cosmos-2251-debris",
        "lat": -22.661454256644443,
        "lon": -136.66628403392028,
        "alt_km": 764.3271779281749,
        "timestamp": "2025-12-21T07:34:34.907783+00:00",
        "meta_object_name": "COSMOS 2251 DEB",
        "meta_object_id": "1993-036EH",
        "meta_epoch": "2025-12-20T12:23:17.034432",
        "meta_mean_motion": 14.47417403,
        "meta_eccentricity": 0.0061856,
        "meta_inclination": 73.9255,
        "meta_ra_of_asc_node": 37.9239,
        "meta_arg_of_pericenter": 330.4254,
        "meta_mean_anomaly": 29.341,
        "meta_ephemeris_type": 0,
        "meta_classification_type": "U",
        "meta_norad_cat_id": 33928,
        "meta_element_set_no": 999,
        "meta_rev_at_epoch": 88757,
        "meta_bstar": 0.00017211,
        "meta_mean_motion_dot": 6.17e-06,
        "meta_mean_motion_ddot": 0,
        "tle_line1": "1 33928U 93036EH  25354.51616938  .00000617  00000+0  17211-3 0  9992",
        "tle_line2": "2 33928  73.9255  37.9239 0061856 330.4254  29.3410 14.47417403887577"
      },
      "geometry": {
        "type": "Point",
        "coordinates": [
          -136.66628403392028,
          -22.661454256644443
        ]
      }
    },
    {
      "type": "Feature",
      "properties": {
        "norad_id": 33932,
        "name": "COSMOS 2251 DEB",
        "group": "cosmos-2251-debris",
        "lat": 68.33933473030439,
        "lon": -13.775410383086752,
        "alt_km": 743.0921436435792,
        "timestamp": "2025-12-21T07:34:34.907792+00:00",
        "meta_object_name": "COSMOS 2251 DEB",
        "meta_object_id": "1993-036EM",
        "meta_epoch": "2025-12-20T21:13:04.543968",
        "meta_mean_motion": 14.38779557,
        "meta_eccentricity": 0.00357482,
        "meta_inclination": 74.0342,
        "meta_ra_of_asc_node": 300.8962,
        "meta_arg_of_pericenter": 15.0884,
        "meta_mean_anomaly": 345.1327,
        "meta_ephemeris_type": 0,
        "meta_classification_type": "U",
        "meta_norad_cat_id": 33932,
        "meta_element_set_no": 999,
        "meta_rev_at_epoch": 88115,
        "meta_bstar": 0.00033256474,
        "meta_mean_motion_dot": 1.003e-05,
        "meta_mean_motion_ddot": 0,
        "tle_line1": "1 33932U 93036EM  25354.88408037  .00001003  00000+0  33256-3 0  9993",
        "tle_line2": "2 33932  74.0342 300.8962 0035748  15.0884 345.1327 14.38779557881157"
      },
      "geometry": {
        "type": "Point",
        "coordinates": [
          -13.775410383086752,
          68.33933473030439
        ]
      }
    },
    {
      "type": "Feature",
      "properties": {
        "norad_id": 33933,
        "name": "COSMOS 2251 DEB",
        "group": "cosmos-2251-debris",
        "lat": 55.255177636935194,
        "lon": -159.77675816480865,
        "alt_km": 757.4706263483804,
        "timestamp": "2025-12-21T07:34:34.907801+00:00",
        "meta_object_name": "COSMOS 2251 DEB",
        "meta_object_id": "1993-036EN",
        "meta_epoch": "2025-12-20T04:13:15.585312",
        "meta_mean_motion": 14.33499387,
        "meta_eccentricity": 0.00708922,
        "meta_inclination": 74.0891,
        "meta_ra_of_asc_node": 46.5839,
        "meta_arg_of_pericenter": 52.7662,
        "meta_mean_anomaly": 307.9929,
        "meta_ephemeris_type": 0,
        "meta_classification_type": "U",
        "meta_norad_cat_id": 33933,
        "meta_element_set_no": 999,
        "meta_rev_at_epoch": 87891,
        "meta_bstar": 0.00018603773,
        "meta_mean_motion_dot": 5.04e-06,
        "meta_mean_motion_ddot": 0,
        "tle_line1": "1 33933U 93036EN  25354.17587483  .00000504  00000+0  18604-3 0  9994",
        "tle_line2": "2 33933  74.0891  46.5839 0070892  52.7662 307.9929 14.33499387878914"
      },
      "geometry": {
        "type": "Point",
        "coordinates": [
          -159.77675816480865,
          55.255177636935194
        ]
      }
    },
    {
      "type": "Feature",
      "properties": {
        "norad_id": 33934,
        "name": "COSMOS 2251 DEB",
        "group": "cosmos-2251-debris",
        "lat": -48.95742126499772,
        "lon": 65.03923019292168,
        "alt_km": 704.337848945077,
        "timestamp": "2025-12-21T07:34:34.907811+00:00",
        "meta_object_name": "COSMOS 2251 DEB",
        "meta_object_id": "1993-036EP",
        "meta_epoch": "2025-12-20T15:21:31.141728",
        "meta_mean_motion": 14.5916745,
        "meta_eccentricity": 0.0015357,
        "meta_inclination": 74.0383,
        "meta_ra_of_asc_node": 85.5194,
        "meta_arg_of_pericenter": 209.3264,
        "meta_mean_anomaly": 150.7041,
        "meta_ephemeris_type": 0,
        "meta_classification_type": "U",
        "meta_norad_cat_id": 33934,
        "meta_element_set_no": 999,
        "meta_rev_at_epoch": 88854,
        "meta_bstar": 0.00054829204,
        "meta_mean_motion_dot": 2.559e-05,
        "meta_mean_motion_ddot": 0,
        "tle_line1": "1 33934U 93036EP  25354.63994377  .00002559  00000+0  54829-3 0  9991",
        "tle_line2": "2 33934  74.0383  85.5194 0015357 209.3264 150.7041 14.59167450888541"
      },
      "geometry": {
        "type": "Point",
        "coordinates": [
          65.03923019292168,
          -48.95742126499772
        ]
      }
    },
    {
      "type": "Feature",
      "properties": {
        "norad_id": 33936,
        "name": "COSMOS 2251 DEB",
        "group": "cosmos-2251-debris",
        "lat": -73.87119468057898,
        "lon": -61.245264920998366,
        "alt_km": 701.5727694909547,
        "timestamp": "2025-12-21T07:34:34.907820+00:00",
        "meta_object_name": "COSMOS 2251 DEB",
        "meta_object_id": "1993-036ER",
        "meta_epoch": "2025-12-20T12:14:59.457696",
        "meta_mean_motion": 14.60314226,
        "meta_eccentricity": 0.0027004,
        "meta_inclination": 74.0178,
        "meta_ra_of_asc_node": 22.632,
        "meta_arg_of_pericenter": 176.2974,
        "meta_mean_anomaly": 183.8397,
        "meta_ephemeris_type": 0,
        "meta_classification_type": "U",
        "meta_norad_cat_id": 33936,
        "meta_element_set_no": 999,
        "meta_rev_at_epoch": 89003,
        "meta_bstar": 0.00039954,
        "meta_mean_motion_dot": 1.91e-05,
        "meta_mean_motion_ddot": 0,
        "tle_line1": "1 33936U 93036ER  25354.51041039  .00001910  00000+0  39954-3 0  9990",
        "tle_line2": "2 33936  74.0178  22.6320 0027004 176.2974 183.8397 14.60314226890035"
      },
      "geometry": {
        "type": "Point",
        "coordinates": [
          -61.245264920998366,
          -73.87119468057898
        ]
      }
    },
    {
      "type": "Feature",
      "properties": {
        "norad_id": 33938,
        "name": "COSMOS 2251 DEB",
        "group": "cosmos-2251-debris",
        "lat": 64.08871637093654,
        "lon": -132.75494427256626,
        "alt_km": 740.4657397246137,
        "timestamp": "2025-12-21T07:34:34.907829+00:00",
        "meta_object_name": "COSMOS 2251 DEB",
        "meta_object_id": "1993-036ET",
        "meta_epoch": "2025-12-20T21:35:57.280128",
        "meta_mean_motion": 14.46815606,
        "meta_eccentricity": 0.00168318,
        "meta_inclination": 74.0437,
        "meta_ra_of_asc_node": 191.9407,
        "meta_arg_of_pericenter": 273.4263,
        "meta_mean_anomaly": 151.4755,
        "meta_ephemeris_type": 0,
        "meta_classification_type": "U",
        "meta_norad_cat_id": 33938,
        "meta_element_set_no": 999,
        "meta_rev_at_epoch": 88518,
        "meta_bstar": 0.00029628989,
        "meta_mean_motion_dot": 1.048e-05,
        "meta_mean_motion_ddot": 0,
        "tle_line1": "1 33938U 93036ET  25354.89996852  .00001048  00000+0  29629-3 0  9995",
        "tle_line2": "2 33938  74.0437 191.9407 0016831 273.4263 151.4755 14.46815606885189"
      },
      "geometry": {
        "type": "Point",
        "coordinates": [
          -132.75494427256626,
          64.08871637093654
        ]
      }
    }
  ]
}